{"spkid": "20310442", "covariance": {"epoch": "2458450.5", "labels": ["e", "q", "tp", "node", "peri", "i", "A2"], "elements": [{"units": null, "title": "eccentricity", "value": ".4232335762183321", "name": "e", "sigma": 6.99417678276472e-08, "label": "e"}, {"label": "q", "units": "au", "title": "perihelion distance", "value": ".4977098513563128", "name": "q", "sigma": 6.03348437065498e-08}, {"label": "tp", "title": "time of perihelion passage", "value": "2458481.257919045543", "units": "TDB", "sigma": 9.62776295853026e-06, "name": "tp"}, {"units": "deg", "title": "longitude of the ascending node", "value": "213.9369953823482", "sigma": 0.00011578366420133, "name": "om", "label": "node"}, {"name": "w", "sigma": 0.000114402306769343, "units": "deg", "title": "argument of perihelion", "value": "109.269605929501", "label": "peri"}, {"label": "i", "name": "i", "sigma": 2.27327809723197e-06, "title": "inclination", "value": "3.267754910385328", "units": "deg"}], "data": [["4.891850886856509E-15", "-4.219758550308551E-15", "5.232757145375955E-13", "2.857307450886339E-13", "-2.524974377413925E-13", "1.692227464177262E-14", "4.409484964265758E-23"], ["-4.219758550308551E-15", "3.640293365093792E-15", "-4.533312742630716E-13", "-2.690100953244939E-13", "2.392662250469931E-13", "-1.44585346473335E-14", "-3.69706069988317E-23"], ["5.232757145375955E-13", "-4.533312742630716E-13", "9.269381958564734E-11", "2.248800877205413E-10", "-1.943309445857884E-10", "-5.599874605217707E-13", "-5.17866797574458E-21"], ["2.857307450886339E-13", "-2.690100953244939E-13", "2.248800877205413E-10", "1.340585689588626E-8", "-1.323499258281368E-8", "1.500529467299335E-10", "-6.346560672956717E-20"], ["-2.524974377413925E-13", "2.392662250469931E-13", "-1.943309445857884E-10", "-1.323499258281368E-8", "1.308788779414693E-8", "-1.517900912418849E-10", "6.000017872044021E-20"], ["1.692227464177262E-14", "-1.44585346473335E-14", "-5.599874605217707E-13", "1.500529467299335E-10", "-1.517900912418849E-10", "5.167793307354591E-12", "4.727227757779611E-22"], ["4.409484964265758E-23", "-3.69706069988317E-23", "-5.17866797574458E-21", "-6.346560672956717E-20", "6.000017872044021E-20", "4.727227757779611E-22", "1.267810291704159E-29"]]}, "elements": [{"label": "e", "value": ".4230426421073786", "title": "eccentricity", "units": null, "sigma": "6.7839E-8", "name": "e"}, {"label": "a", "name": "a", "sigma": "9.4413E-9", "units": "au", "title": "semi-major axis", "value": ".8621011099026761"}, {"label": "q", "units": "au", "title": "perihelion distance", "value": ".4973955786057444", "name": "q", "sigma": "6.3644E-8"}, {"label": "i", "value": "3.264401513542459", "title": "inclination; angle with respect to x-y ecliptic plane", "units": "deg", "name": "i", "sigma": "2.312E-6"}, {"value": "213.4676956002594", "title": "longitude of the ascending node", "units": "deg", "sigma": ".00011602", "name": "om", "label": "node"}, {"sigma": ".00011497", "name": "w", "units": "deg", "title": "argument of perihelion", "value": "109.8360394428634", "label": "peri"}, {"label": "M", "units": "deg", "title": "mean anomaly", "value": "104.4799781828994", "sigma": "5.804E-6", "name": "ma"}, {"label": "tp", "units": "TDB", "title": "time of perihelion passage", "value": "2461115.647175030446", "sigma": "5.4289E-6", "name": "tp"}, {"sigma": "4.8029E-6", "name": "per", "units": "d", "title": "sidereal orbital period", "value": "292.3719694462882", "label": "period"}, {"label": "n", "value": "1.231308188270544", "title": "mean motion", "units": "deg/d", "name": "n", "sigma": "2.0227E-8"}, {"sigma": "1.3435E-8", "name": "ad", "units": "au", "title": "aphelion distance", "value": "1.226806641199608", "label": "Q"}], "epoch": "2461200.5"}